{
  "type" : "FeatureCollection",
  "features" : [{"type":"Feature","id":8,"geometry":{"type":"MultiLineString","coordinates":[[[126.68974510663287,37.465915370364179],[126.66767677356296,37.468153995122648],[126.66514098402614,37.468479129247896],[126.66609196394211,37.469583192529349],[126.66849493756419,37.473460687346218]],[[126.65971511659095,37.468070652088379],[126.65971453088936,37.468053916877423]],[[126.65971511659095,37.468070652088379],[126.65631819034462,37.467819136560095],[126.65095568647627,37.468608542530362],[126.64802683549361,37.468693588274476]],[[126.65387518240362,37.468212457040408],[126.65477319405711,37.470752804092463],[126.65408741388109,37.472186057672843],[126.65504750630724,37.474544516977723],[126.65941363748998,37.473256444833041],[126.66021371391298,37.473637425778143]],[[126.66511328896596,37.468470342455056],[126.65971511659095,37.468070652088379]],[[126.66682920141433,37.471023990955601],[126.66539358669075,37.47140378765566],[126.66572258118887,37.472661849059605],[126.66504101141651,37.473484989858925]],[[126.66547230605914,37.471374315545866],[126.66259341847426,37.469672811585326],[126.65977195569388,37.469694688377849],[126.65971511659095,37.468070652088379]],[[126.66849493756419,37.473460687346218],[126.67089487308402,37.472028511232033],[126.68717250503401,37.469000883504414]],[[126.66849493756419,37.473460687346218],[126.67022707178994,37.476255575646334]],[[126.66504101141651,37.473484989858925],[126.66199237368394,37.471821561297766]],[[126.66504101141651,37.473484989858925],[126.66503468278529,37.473492633228574],[126.66300687527026,37.474631979195166],[126.66260490343512,37.475194049523004]],[[126.66505502064338,37.473492633228574],[126.66504101141651,37.473484989858925]],[[126.6649455285866,37.475572181765735],[126.66796698060374,37.473775744628064],[126.66849493756419,37.473460687346218]],[[126.6649455285866,37.475572181765735],[126.67022707178994,37.476255575646334]],[[126.67022707178994,37.476255575646334],[126.67027896117575,37.476262289813555]],[[126.67022707178994,37.476255575646334],[126.6705353726972,37.476753024082491]],[[126.65363451385751,37.47750949258959],[126.65659908275421,37.475270181297901],[126.65886628769918,37.474952071887152],[126.66042087619728,37.474986719099242],[126.6649455285866,37.475572181765735]],[[126.65378408155571,37.479321797057636],[126.65584100706231,37.480624169556371]],[[126.65584100706231,37.480624169556371],[126.66322642083075,37.476594276756103],[126.6649455285866,37.475572181765735]],[[126.65584100706231,37.480624169556371],[126.65903011884743,37.482643356094151],[126.67042183193345,37.476800857023889],[126.6810299877163,37.473909554650398],[126.68345879149607,37.473541047159031],[126.68563757077607,37.472350472296455],[126.68306589713688,37.469799176282336]],[[126.65311437493499,37.482111916741751],[126.65584100706231,37.480624169556371]]]},"properties":{"OBJECTID":8,"Shape_Length":20580.583863502365}}]
}