{
  "type" : "FeatureCollection",
  "features" : [{"type":"Feature","id":8,"geometry":{"type":"MultiLineString","coordinates":[[[126.69445698499545,37.457525661583027],[126.67619907449375,37.458717345353165]],[[126.69013657267081,37.457870431043922],[126.69725576531485,37.461282787146921],[126.69648009342325,37.462148127761758],[126.69510912685745,37.463361532376204],[126.68030706220323,37.464039732283474]],[[126.6820666094182,37.458239074257996],[126.68201328182964,37.456755548300414],[126.68000897603909,37.456790388637707]],[[126.67236539633947,37.458927653772598],[126.66909311044057,37.454274294515201],[126.66752869796647,37.45227792857446],[126.66716386338356,37.450147201328669],[126.66755887237692,37.448869597499161],[126.66422323997907,37.449194807635337],[126.65879643560102,37.450629926460948],[126.65304783672185,37.452229222750525],[126.65086178108808,37.451902465455554],[126.64973699962249,37.451833802854743],[126.64821256756849,37.451863946601478]],[[126.66343687903387,37.465509401827305],[126.66340396116857,37.464977421376275],[126.66355026079573,37.464431646606322],[126.66352100087033,37.463049774616266],[126.66328692146686,37.462631724492113],[126.66249690348009,37.462132383780556]],[[126.65626453666763,37.466254749339768],[126.66094612653374,37.466301197218115],[126.66915353921138,37.463885868565349],[126.67620446348712,37.458717080089194],[126.67239773479137,37.458977313604301],[126.67283206214641,37.461154740225922]]]},"properties":{"OBJECTID":8,"Shape_Length":13041.263127289578}}]
}