{
  "type" : "FeatureCollection",
  "features" : [{"type":"Feature","id":9,"geometry":{"type":"MultiLineString","coordinates":[[[126.64768337542451,37.435793374799637],[126.64768926118629,37.435796556089961]],[[126.64768926118629,37.435796556089961],[126.6462333544188,37.43087486482127]],[[126.64768926118629,37.435796556089961],[126.64896342260214,37.436485155318529],[126.64909168405839,37.436707426695918],[126.64930318340888,37.43687213046212],[126.64959093176066,37.437075672771357],[126.64981161818162,37.437424625000318],[126.65008701020665,37.437585582485404],[126.65068224738864,37.437380752668396],[126.65119610798571,37.437402106089088],[126.65190478352345,37.43754685511572],[126.65811484606569,37.439167211255132],[126.66205439247283,37.440099357111841],[126.66256628755603,37.440849905664649]],[[126.64931301367304,37.441023423142141],[126.64824502190309,37.437675217064395],[126.64768926118629,37.435796556089961]],[[126.64931301367304,37.441023423142141],[126.65075629102594,37.440945586788743],[126.6526513032875,37.440428852772826],[126.6535126726606,37.441933450564214]],[[126.64923619064827,37.441027566376157],[126.64931301367304,37.441023423142141]],[[126.65352738796324,37.441940033725565],[126.65121568766557,37.442890906458295],[126.65087113973672,37.442966894247498],[126.64986681965577,37.442805474754188]],[[126.64973090904493,37.442783230628166],[126.64698540780496,37.442419778445739],[126.64631918844418,37.442224387941984],[126.64576034920087,37.441781472096352],[126.64464735812336,37.440564483484955]],[[126.64986681965577,37.442805474754188],[126.64973461818866,37.442784226293313]],[[126.64986681965577,37.442805474754188],[126.64981600914668,37.442600284779587],[126.64931301367304,37.441023423142141]],[[126.64081856860092,37.444760722429102],[126.63968171826951,37.442996343319692],[126.64645543502496,37.439613332975142],[126.64721510612479,37.440504843062321],[126.64773192756903,37.440930388969186],[126.64849758953343,37.441051972865715],[126.64920102699475,37.441033853620993]],[[126.64081856860092,37.444760722429102],[126.64160686002568,37.444233092611107],[126.6433359534542,37.44371365038505],[126.65039252723476,37.445346170748294]],[[126.64089839828692,37.444884615885371],[126.64081856860092,37.444760722429102]],[[126.65053272370791,37.445494579535094],[126.64986681965577,37.442805474754188]],[[126.65059162893604,37.445524551102018],[126.65707714638549,37.442991346464133],[126.66254382967394,37.440849885693758],[126.66416956564083,37.442925901604617],[126.65670317234276,37.445949229027995],[126.65025232986335,37.448536178762353]],[[126.64981203050826,37.448602525155778],[126.6462711833737,37.447845109433111],[126.64669681234186,37.446672088496626],[126.64470076925525,37.446235792460925],[126.64319575698104,37.44586560092722],[126.64265454987014,37.447321237024774],[126.64242705781265,37.448425599882931],[126.64289679585789,37.449785365282651],[126.64346336510418,37.450732462013448],[126.64484155592152,37.452981438867276]],[[126.63118556280507,37.451208108239129],[126.64081856860092,37.444760722429102]],[[126.64993618935863,37.456331589911535],[126.6478652672016,37.452632647616838],[126.64973347912493,37.449055198830102],[126.65050050203702,37.445410869621021]],[[126.64621974584058,37.45761594186159],[126.64545408477443,37.456506726579576],[126.64419074356614,37.455868539706579],[126.64336071192173,37.4547399460441],[126.64283905125312,37.453954393539412],[126.64486125777232,37.453034053577213]]]},"properties":{"OBJECTID":9,"Shape_Length":18049.736947073103}}]
}