{
  "type" : "FeatureCollection",
  "features" : [{"type":"Feature","id":3,"geometry":{"type":"MultiLineString","coordinates":[[[126.68919119554724,37.438476048253854],[126.68919120632705,37.438476989054685]],[[126.68919119554724,37.438476048253854],[126.68358272127604,37.4385130419018],[126.68185415515853,37.438604541276447],[126.67854107047431,37.439450906258351],[126.67506802727908,37.439501454189411],[126.67332310553522,37.439584493120059],[126.67239066055851,37.439650467998995]],[[126.67239066055851,37.439650467998995],[126.67668546640603,37.437915548562927],[126.67718108042297,37.437596980646539],[126.67777466650151,37.437498351544484],[126.6786108480124,37.4374369461679],[126.68119189467325,37.43779002514686],[126.68402428006912,37.437486837817289],[126.6875671771592,37.437237379237729],[126.68873203157123,37.437329487172647],[126.68918153955629,37.437613485865597],[126.68919119554724,37.438476048253854]],[[126.67239066055851,37.439650467998995],[126.66415494555959,37.440233181041961],[126.66244466285309,37.440828857783714],[126.66378201086772,37.442427400028023],[126.66419058891343,37.442962837421113]],[[126.67067909056624,37.440342240681254],[126.6703250806824,37.443705750065398],[126.67858532148526,37.444352201287238],[126.6839072771983,37.445485819282531],[126.68502864596411,37.445525690084082],[126.68643004116352,37.445478501122452],[126.68994905294851,37.445420460762726]],[[126.66419058891343,37.442962837421113],[126.67239066055851,37.439650467998995]],[[126.66419058891343,37.442962837421113],[126.66788157956627,37.447799662805316],[126.66747824768181,37.448943255713409]],[[126.66410754325869,37.442996382547101],[126.66419058891343,37.442962837421113]],[[126.66750705665301,37.448920383684275],[126.67096731861841,37.44863073180467],[126.67637865310897,37.448260445145436],[126.67966463831596,37.448074126526464],[126.68302151317529,37.447928661150655],[126.69004640607076,37.448309249832164],[126.69089455583615,37.448260793174811],[126.69168230108521,37.447954152985453],[126.69330409165137,37.446736822595433],[126.69490260417361,37.445582241199517],[126.69606896865371,37.444746327030714],[126.69764287811692,37.444269052820161],[126.70051921179146,37.443449276293563],[126.70291615681963,37.443171135342745],[126.702344577669,37.438925703324401],[126.69576219757739,37.438837864817366],[126.68982514921964,37.43847186707535],[126.68919119554724,37.438476048253854]]]},"properties":{"OBJECTID":3,"Shape_Length":16377.52764380237}}]
}