{
  "type" : "FeatureCollection",
  "features" : [{"type":"Feature","id":7,"geometry":{"type":"MultiLineString","coordinates":[[[126.64834525951576,37.459855288592443],[126.64484882958041,37.458456693782907]],[[126.64834525951576,37.459855288592443],[126.65007593847075,37.45628150402932]],[[126.64830286622087,37.459937248884728],[126.64274657957604,37.46215638051585]],[[126.65218893951243,37.461392755187326],[126.64834525951576,37.459855288592443]],[[126.65218893951243,37.461392755187326],[126.65384923905819,37.458630168998454],[126.65539515611884,37.455952478233748]],[[126.65659223579507,37.463154028664114],[126.65218893951243,37.461392755187326]],[[126.65659223579507,37.463154028664114],[126.65662353669286,37.463076175406769],[126.65833240545108,37.461344128743377],[126.6587299144559,37.460483933523413],[126.65930199127324,37.459649187734492],[126.66014327970649,37.459068199667627],[126.6611515317134,37.458459086871784],[126.66214053012877,37.458084954729536],[126.66322560516053,37.457776353186055],[126.66462847988515,37.457281485346833],[126.66512297909293,37.457168017119265],[126.66539340792599,37.457235484676985],[126.66659875030629,37.45795615502211],[126.66762082738538,37.45887883248259],[126.66804941001419,37.45911841274944],[126.66953435572158,37.459108829781677]],[[126.65659255559531,37.463154156297051],[126.65659223579507,37.463154028664114]],[[126.64650544962677,37.463654236725382],[126.64272355306038,37.462161767551521],[126.63909210094791,37.463410040571155]],[[126.64650544962677,37.463654236725382],[126.64834525951576,37.459855288592443]],[[126.64649072084936,37.463684648084552],[126.64650544962677,37.463654236725382]],[[126.64997015286289,37.46502150426398],[126.64650544962677,37.463654236725382]],[[126.64997015286289,37.46502150426398],[126.65167683063017,37.462244835521581],[126.65218893951243,37.461392755187326]],[[126.64996080409577,37.465036714301611],[126.64997015286289,37.46502150426398]],[[126.64537844842414,37.46600539024854],[126.64649081517244,37.463697879742128]],[[126.65309662512328,37.466255275536248],[126.64997015286289,37.46502150426398]],[[126.64578125928576,37.466962048921062],[126.64750655912881,37.466261054428486],[126.65631791186691,37.466277357247826],[126.65635899092652,37.463734160012478],[126.65659223579507,37.463154028664114]],[[126.64577600324301,37.466967497641221],[126.64336090416126,37.46790363206285]]]},"properties":{"OBJECTID":7,"Shape_Length":10614.435627854618}}]
}