{
  "type" : "FeatureCollection",
  "features" : [{"type":"Feature","id":2,"geometry":{"type":"MultiLineString","coordinates":[[[126.67199163879079,37.431336497537217],[126.67333104843895,37.434217128686555],[126.67465615151795,37.435123558962097],[126.67593371665041,37.436356968224189],[126.67744626219654,37.438815963305636],[126.67845220373653,37.441405708087494],[126.67909234769961,37.44677853846364],[126.67979345852432,37.448859802120097],[126.67985594623381,37.451499112957372],[126.6801026290007,37.458498431638333],[126.68034215399142,37.464056106889615],[126.67587924640479,37.464261891853248],[126.67452022024574,37.464324540826745],[126.67334992383971,37.464224874573453],[126.66945969853495,37.463814151664756],[126.66500917063125,37.468459555032737]],[[126.64294970483147,37.462334647339304],[126.64590586459883,37.467134851300905]],[[126.64296152037242,37.462357085303005],[126.64146631859946,37.459907552630654],[126.6400439378567,37.460353645514083],[126.6383170336225,37.46084532349392],[126.63118630301688,37.451019656089478],[126.63194001199817,37.44620760630486],[126.63416664543161,37.435558151532291],[126.63537772445331,37.430522729074291],[126.64366530817669,37.43161957095063],[126.64642783608454,37.431090062987494]]]},"properties":{"OBJECTID":2,"NoteType":0,"Name":null,"Notes":null,"created_user":"USER","created_date":1754110963000,"last_edited_user":"USER","last_edited_date":1755156994000,"Shape_Length":14098.505793272821}}]
}