{
  "type" : "FeatureCollection",
  "features" : [{"type":"Feature","id":3,"geometry":{"type":"MultiLineString","coordinates":[[[126.69603651701402,37.437156860576941],[126.69277937850744,37.441827771844352],[126.69118670413627,37.443291791975433],[126.69031458821736,37.44437263624112],[126.69001679310743,37.44538591324784],[126.68997425069222,37.448290565371039],[126.68991707202603,37.450726694044704]],[[126.69954624920213,37.438866923219166],[126.70020565394319,37.443612669302119]],[[126.68991707202603,37.450726694044704],[126.6899369355736,37.450725334778021],[126.69268304587131,37.450534192824257]],[[126.68991707202603,37.450726694044704],[126.68991043796768,37.451009352516905],[126.68939993078163,37.457848100835669],[126.68984662434488,37.46362255687621],[126.69005933552265,37.465884941374256]],[[126.63816176701212,37.460926141101304],[126.64219029424314,37.459668911861087],[126.64612910672672,37.457839588043662],[126.6498231247021,37.456261764747261],[126.65300747541612,37.456504116646869],[126.65575770359106,37.455980756986733],[126.65897415650018,37.45494422559679],[126.66761418614053,37.452252602947723],[126.68991707202603,37.450726694044704]]]},"properties":{"OBJECTID":3,"Shape_Length":11242.311273202731}}]
}